NORAD_CAT_ID,OBJECT_NAME,OBJECT_TYPE,EPOCH,MEAN_MOTION,ECCENTRICITY,INCLINATION,RA_OF_ASC_NODE,ARG_OF_PERICENTER,MEAN_ANOMALY,BSTAR,MEAN_MOTION_DOT,MEAN_MOTION_DDOT,TLE_LINE0,TLE_LINE1,TLE_LINE2,SEMIMAJOR_AXIS,PERIOD,APOGEE,PERIGEE,DECAYED
51815.0,STARLINK-3604,PAYLOAD,2023-11-14 21:06:35,15.08835975,0.000156,53.2155,166.1088,80.5409,279.5759,-1.4756e-05,-5.23e-06,0.0,0 STARLINK-3604,1 51815U 22017AZ  23318.87957439 -.00000523  00000-0 -14756-4 0  9990,2 51815  53.2155 166.1088 0001560  80.5409 279.5759 15.08835975 96393,6917.893,95.438,540.837,538.679,0.0
51815.0,STARLINK-3604,PAYLOAD,2023-11-15 20:57:22,15.08837252,0.0001703,53.218,161.6485,82.0762,278.0424,0.00012229,1.659e-05,0.0,0 STARLINK-3604,1 51815U 22017AZ  23319.87317678  .00001659  00000-0  12229-3 0  9997,2 51815  53.2180 161.6485 0001703  82.0762 278.0424 15.08837252 96540,6917.889,95.438,540.932,538.576,0.0
51815.0,STARLINK-3604,PAYLOAD,2023-11-16 00:08:08,15.08836627,0.000141,53.2158,161.0543,82.5581,277.5572,7.3909e-05,8.88e-06,0.0,0 STARLINK-3604,1 51815U 22017AZ  23320.00565826  .00000888  00000-0  73909-4 0  9990,2 51815  53.2158 161.0543 0001410  82.5581 277.5572 15.08836627 96681,6917.891,95.438,540.731,538.78,0.0
51815.0,STARLINK-3604,PAYLOAD,2023-11-17 12:42:01,15.08838006,0.0001381,53.2149,154.2159,90.5985,269.5166,5.0631e-05,5.18e-06,0.0,0 STARLINK-3604,1 51815U 22017AZ  23321.52918029  .00000518  00000-0  50631-4 0  9992,2 51815  53.2149 154.2159 0001381  90.5985 269.5166 15.08838006 96911,6917.886,95.438,540.707,538.796,0.0
51815.0,STARLINK-3604,PAYLOAD,2023-11-17 19:03:33,15.08837829,0.0001377,53.215,153.0263,90.5284,269.5866,4.4628e-05,4.22e-06,0.0,0 STARLINK-3604,1 51815U 22017AZ  23321.79414068  .00000422  00000-0  44628-4 0  9998,2 51815  53.2150 153.0263 0001377  90.5284 269.5866 15.08837829 96833,6917.887,95.438,540.705,538.799,0.0
51815.0,STARLINK-3604,PAYLOAD,2023-11-18 06:11:15,15.08841219,0.0001411,53.2157,150.9452,89.2971,270.8183,6.836e-05,8e-06,0.0,0 STARLINK-3604,1 51815U 22017AZ  23322.25781849  .00000800  00000-0  68360-4 0  9993,2 51815  53.2157 150.9452 0001411  89.2971 270.8183 15.08841219 96906,6917.877,95.437,540.718,538.766,0.0
51815.0,STARLINK-3604,PAYLOAD,2023-11-18 18:54:20,15.08842547,0.0001432,53.2156,148.566,89.4087,270.707,0.00011103,1.48e-05,0.0,0 STARLINK-3604,1 51815U 22017AZ  23322.78773569  .00001480  00000-0  11103-3 0  9998,2 51815  53.2156 148.5660 0001432  89.4087 270.7070 15.08842547 97104,6917.873,95.437,540.728,538.747,0.0
51815.0,STARLINK-3604,PAYLOAD,2023-11-19 12:23:34,15.0884198,0.0001377,53.2158,145.295,89.3205,270.7945,0.00010252,1.344e-05,0.0,0 STARLINK-3604,1 51815U 22017AZ  23323.51637592  .00001344  00000-0  10252-3 0  9998,2 51815  53.2158 145.2950 0001377  89.3205 270.7945 15.08841980 97090,6917.874,95.437,540.692,538.787,0.0
51815.0,STARLINK-3604,PAYLOAD,2023-11-19 18:45:07,15.08843432,0.0001351,53.2166,144.1058,89.554,270.5607,0.00011361,1.521e-05,0.0,0 STARLINK-3604,1 51815U 22017AZ  23323.78133456  .00001521  00000-0  11361-3 0  9996,2 51815  53.2166 144.1058 0001351  89.5540 270.5607 15.08843432 97134,6917.87,95.437,540.67,538.8,0.0
51815.0,STARLINK-3604,PAYLOAD,2023-11-20 12:14:21,15.08842565,0.0001327,53.2164,140.8347,90.3464,269.768,4.3151e-05,3.99e-06,0.0,0 STARLINK-3604,1 51815U 22017AZ  23324.50997587  .00000399  00000-0  43151-4 0  9995,2 51815  53.2164 140.8347 0001327  90.3464 269.7680 15.08842565 97243,6917.873,95.437,540.656,538.82,0.0
51815.0,STARLINK-3604,PAYLOAD,2023-11-20 18:35:54,15.08842961,0.0001348,53.2168,139.6451,91.8276,268.2871,4.8559e-05,4.85e-06,0.0,0 STARLINK-3604,1 51815U 22017AZ  23324.77493467  .00000485  00000-0  48559-4 0  9995,2 51815  53.2168 139.6451 0001348  91.8276 268.2871 15.08842961 97403,6917.871,95.437,540.669,538.804,0.0
51815.0,STARLINK-3604,PAYLOAD,2023-11-21 12:05:09,15.08840112,0.0001343,53.2167,136.374,91.3751,268.7395,1.8875e-05,1.2e-07,0.0,0 STARLINK-3604,1 51815U 22017AZ  23325.50357674  .00000012  00000-0  18875-4 0  9990,2 51815  53.2167 136.3740 0001343  91.3751 268.7395 15.08840112 97395,6917.88,95.438,540.674,538.816,0.0
51815.0,STARLINK-3604,PAYLOAD,2023-11-21 18:26:41,15.0884278,0.0001378,53.2169,135.1848,91.8501,268.2649,4.2475e-05,3.88e-06,0.0,0 STARLINK-3604,1 51815U 22017AZ  23325.76853427  .00000388  00000-0  42475-4 0  9994,2 51815  53.2169 135.1848 0001378  91.8501 268.2649 15.08842780 97434,6917.872,95.437,540.69,538.784,0.0
51815.0,STARLINK-3604,PAYLOAD,2023-11-22 11:55:56,15.08840075,0.0001383,53.217,131.9139,92.0548,268.0603,5.4691e-05,5.83e-06,0.0,0 STARLINK-3604,1 51815U 22017AZ  23326.49717604  .00000583  00000-0  54691-4 0  9991,2 51815  53.2170 131.9139 0001383  92.0548 268.0603 15.08840075 97661,6917.88,95.438,540.702,538.788,0.0
51815.0,STARLINK-3604,PAYLOAD,2023-11-22 16:42:05,15.08841911,0.0001383,53.217,131.0218,91.8846,268.2305,6.7402e-05,7.85e-06,0.0,0 STARLINK-3604,1 51815U 22017AZ  23326.69589462  .00000785  00000-0  67402-4 0  9990,2 51815  53.2170 131.0218 0001383  91.8846 268.2305 15.08841911 97579,6917.875,95.437,540.696,538.783,0.0
51815.0,STARLINK-3604,PAYLOAD,2023-11-23 10:11:20,15.08835936,0.0001474,53.2178,127.7508,97.3888,262.7272,2.6175e-05,1.29e-06,0.0,0 STARLINK-3604,1 51815U 22017AZ  23327.42454126  .00000129  00000-0  26175-4 0  9994,2 51815  53.2178 127.7508 0001474  97.3888 262.7272 15.08835936 97807,6917.893,95.438,540.778,538.738,0.0
51815.0,STARLINK-3604,PAYLOAD,2023-11-23 16:32:53,15.08834927,0.0001466,53.2179,126.5611,97.5856,262.5302,8.6046e-06,-1.51e-06,0.0,0 STARLINK-3604,1 51815U 22017AZ  23327.68950300 -.00000151  00000-0  86046-5 0  9997,2 51815  53.2179 126.5611 0001466  97.5856 262.5302 15.08834927 97720,6917.896,95.438,540.775,538.747,0.0
51815.0,STARLINK-3604,PAYLOAD,2023-11-24 10:02:07,15.08836966,0.0001441,53.2176,123.29,72.1589,287.956,5.2711e-05,5.51e-06,0.0,0 STARLINK-3604,1 51815U 22017AZ  23328.41814388  .00000551  00000-0  52711-4 0  9998,2 51815  53.2176 123.2900 0001441  72.1589 287.9560 15.08836966 97831,6917.89,95.438,540.752,538.758,0.0
51815.0,STARLINK-3604,PAYLOAD,2023-11-24 17:59:03,15.0884092,0.000144,53.2177,121.8035,74.9427,285.1724,7.8172e-05,9.56e-06,0.0,0 STARLINK-3604,1 51815U 22017AZ  23328.74934109  .00000956  00000-0  78172-4 0  9996,2 51815  53.2177 121.8035 0001440  74.9427 285.1724 15.08840920 98002,6917.878,95.437,540.739,538.746,0.0
51815.0,STARLINK-3604,PAYLOAD,2023-11-25 14:39:00,15.08884053,0.0001312,53.2178,117.9375,60.384,299.7283,0.00047841,7.343e-05,0.0,0 STARLINK-3604,1 51815U 22017AZ  23329.61042112  .00007343  00000-0  47841-3 0  9992,2 51815  53.2178 117.9375 0001312  60.3840 299.7283 15.08884053 98019,6917.746,95.435,540.518,538.703,0.0
51815.0,STARLINK-3604,PAYLOAD,2023-11-25 16:14:22,15.08903886,0.0001747,53.2166,117.6393,60.4961,299.6206,0.00064917,0.00010077,0.0,0 STARLINK-3604,1 51815U 22017AZ  23329.67664560  .00010077  00000-0  64917-3 0  9996,2 51815  53.2166 117.6393 0001747  60.4961 299.6206 15.08903886 98021,6917.685,95.434,540.759,538.342,0.0
51815.0,STARLINK-3604,PAYLOAD,2023-11-26 14:29:50,15.08842912,0.000117,53.2174,113.4725,113.0248,247.0868,-4.3207e-05,-9.75e-06,0.0,0 STARLINK-3604,1 51815U 22017AZ  23330.60405291 -.00000975  00000-0 -43207-4 0  9993,2 51815  53.2174 113.4725 0001170 113.0248 247.0868 15.08842912 98164,6917.871,95.437,540.546,538.927,0.0
51815.0,STARLINK-3604,PAYLOAD,2023-11-26 16:05:13,15.08841375,0.0001225,53.2171,113.1758,78.1708,281.9421,-0.00010301,-1.927e-05,0.0,0 STARLINK-3604,1 51815U 22017AZ  23330.67029022 -.00001927  00000-0 -10301-3 0  9990,2 51815  53.2171 113.1758 0001225  78.1708 281.9421 15.08841375 98295,6917.876,95.437,540.589,538.894,0.0
51815.0,STARLINK-3604,PAYLOAD,2023-11-26 20:51:22,15.08846185,0.0001413,53.2161,112.2845,52.8122,307.2999,-8.1225e-06,-4.17e-06,0.0,0 STARLINK-3604,1 51815U 22017AZ  23330.86900603 -.00000417  00000-0 -81225-5 0  9992,2 51815  53.2161 112.2845 0001413  52.8122 307.2999 15.08846185 98206,6917.861,95.437,540.704,538.749,0.0
51815.0,STARLINK-3604,PAYLOAD,2023-11-27 14:20:36,15.08839098,0.0001771,53.2169,109.0134,68.3096,291.8085,-0.00070199,-0.00011443,0.0,0 STARLINK-3604,1 51815U 22017AZ  23331.59764802 -.00011443  00000-0 -70199-3 0  9999,2 51815  53.2169 109.0134 0001771  68.3096 291.8085 15.08839098 98319,6917.883,95.438,540.973,538.523,0.0
51815.0,STARLINK-3604,PAYLOAD,2023-11-27 15:55:59,15.08838807,0.0001773,53.2173,108.7148,72.3528,287.7658,-0.00066543,-0.00010863,0.0,0 STARLINK-3604,1 51815U 22017AZ  23331.66388822 -.00010863  00000-0 -66543-3 0  9994,2 51815  53.2173 108.7148 0001773  72.3528 287.7658 15.08838807 98443,6917.884,95.438,540.976,538.522,0.0
51815.0,STARLINK-3604,PAYLOAD,2023-11-28 14:11:24,15.08844225,0.0001382,53.2171,104.5517,99.4554,260.6595,0.00031043,4.657e-05,0.0,0 STARLINK-3604,1 51815U 22017AZ  23332.59125795  .00004657  00000-0  31043-3 0  9994,2 51815  53.2171 104.5517 0001382  99.4554 260.6595 15.08844225 98463,6917.867,95.437,540.689,538.776,0.0
51815.0,STARLINK-3604,PAYLOAD,2023-11-29 12:26:49,15.0884015,0.0001216,53.2169,100.394,83.5909,276.5222,0.00021934,3.205e-05,0.0,0 STARLINK-3604,1 51815U 22017AZ  23333.51862489  .00003205  00000-0  21934-3 0  9991,2 51815  53.2169 100.3940 0001216  83.5909 276.5222 15.08840150 98723,6917.88,95.438,540.586,538.904,0.0
51815.0,STARLINK-3604,PAYLOAD,2023-11-29 14:02:12,15.08843845,0.000124,53.2164,100.0953,92.7957,267.3177,0.00024897,3.677e-05,0.0,0 STARLINK-3604,1 51815U 22017AZ  23333.58486291  .00003677  00000-0  24897-3 0  9995,2 51815  53.2164 100.0953 0001240  92.7957 267.3177 15.08843845 98610,6917.869,95.437,540.591,538.876,0.0
51815.0,STARLINK-3604,PAYLOAD,2023-11-30 13:52:59,15.08836987,0.0001457,53.2177,95.6357,88.9486,271.1673,-5.5688e-05,-1.174e-05,0.0,0 STARLINK-3604,1 51815U 22017AZ  23334.57846765 -.00001174  00000-0 -55688-4 0  9996,2 51815  53.2177  95.6357 0001457  88.9486 271.1673 15.08836987 98887,6917.89,95.438,540.763,538.747,0.0
